SPACEXODC_L_00004254-16
1 21400U 25604CA  26075.70057870  .00000000  00000+0  00000-0 0  9997
2 21400  30.0000 270.2671 0000000   0.0000 144.0237 15.05490646    19
SPACEXODC_L_00004254-17
1 21401U 26538AA  26075.70057870  .00000000  00000+0  00000-0 0  9995
2 21401  30.0000 270.2671 0000000   0.0000 152.0237 15.05490646    19
SPACEXODC_L_00004254-18
1 21402U 22567JF  26075.70057870  .00000000  00000+0  00000-0 0  9994
2 21402  30.0000 270.2671 0000000   0.0000 160.0237 15.05490646    19
SPACEXODC_L_00004254-19
1 21403U 26815AR  26075.70057870  .00000000  00000+0  00000-0 0  9995
2 21403  30.0000 270.2671 0000000   0.0000 168.0237 15.05490646    18
SPACEXODC_L_00004254-20
1 21404U 24951MD  26075.70057870  .00000000  00000+0  00000-0 0  9995
2 21404  30.0000 270.2671 0000000   0.0000 176.0237 15.05490646    18
SPACEXODC_L_00004254-21
1 21405U 26184HI  26075.70057870  .00000000  00000+0  00000-0 0  9996
2 21405  30.0000 270.2671 0000000   0.0000 184.0237 15.05490646    18
SPACEXODC_L_00004254-22
1 21406U 23869MV  26075.70057870  .00000000  00000+0  00000-0 0  9994
2 21406  30.0000 270.2671 0000000   0.0000 192.0237 15.05490646    18
SPACEXODC_L_00004254-23
1 21407U 25084MU  26075.70057870  .00000000  00000+0  00000-0 0  9996
2 21407  30.0000 270.2671 0000000   0.0000 200.0237 15.05490646    19
SPACEXODC_L_00004254-24
1 21408U 25082OG  26075.70057870  .00000000  00000+0  00000-0 0  9995
2 21408  30.0000 270.2671 0000000   0.0000 208.0237 15.05490646    18
SPACEXODC_L_00004254-25
1 21409U 25451MM  26075.70057870  .00000000  00000+0  00000-0 0  9996
2 21409  30.0000 270.2671 0000000   0.0000 216.0237 15.05490646    18
SPACEXODC_L_00004254-26
1 21410U 23825IZ  26075.70057870  .00000000  00000+0  00000-0 0  9991
2 21410  30.0000 270.2671 0000000   0.0000 224.0237 15.05490646    19
SPACEXODC_L_00004254-27
1 21411U 22297DC  26075.70057870  .00000000  00000+0  00000-0 0  9994
2 21411  30.0000 270.2671 0000000   0.0000 232.0237 15.05490646    19
SPACEXODC_L_00004254-28
1 21412U 23227RY  26075.70057870  .00000000  00000+0  00000-0 0  9999
2 21412  30.0000 270.2671 0000000   0.0000 240.0237 15.05490646    19
SPACEXODC_L_00004254-29
1 21413U 22511VT  26075.70057870  .00000000  00000+0  00000-0 0  9995
2 21413  30.0000 270.2671 0000000   0.0000 248.0237 15.05490646    18
SPACEXODC_L_00004254-30
1 21414U 24756OY  26075.70057870  .00000000  00000+0  00000-0 0  9999
2 21414  30.0000 270.2671 0000000   0.0000 256.0237 15.05490646    18
SPACEXODC_L_00004254-31
1 21415U 22107MK  26075.70057870  .00000000  00000+0  00000-0 0  9998
2 21415  30.0000 270.2671 0000000   0.0000 264.0237 15.05490646    18
SPACEXODC_L_00004254-32
1 21416U 25011TW  26075.70057870  .00000000  00000+0  00000-0 0  9996
2 21416  30.0000 270.2671 0000000   0.0000 272.0237 15.05490646    18
SPACEXODC_L_00004254-33
1 21417U 24995SX  26075.70057870  .00000000  00000+0  00000-0 0  9997
2 21417  30.0000 270.2671 0000000   0.0000 280.0237 15.05490646    18
SPACEXODC_L_00004254-34
1 21418U 22388FX  26075.70057870  .00000000  00000+0  00000-0 0  9992
2 21418  30.0000 270.2671 0000000   0.0000 288.0237 15.05490646    17
SPACEXODC_L_00004254-35
1 21419U 23109LZ  26075.70057870  .00000000  00000+0  00000-0 0  9995
2 21419  30.0000 270.2671 0000000   0.0000 296.0237 15.05490646    17
SPACEXODC_L_00004254-36
1 21420U 24225WF  26075.70057870  .00000000  00000+0  00000-0 0  9997
2 21420  30.0000 270.2671 0000000   0.0000 304.0237 15.05490646    19
SPACEXODC_L_00004254-37
1 21421U 25562ZN  26075.70057870  .00000000  00000+0  00000-0 0  9993
2 21421  30.0000 270.2671 0000000   0.0000 312.0237 15.05490646    19
SPACEXODC_L_00004254-38
1 21422U 25145MZ  26075.70057870  .00000000  00000+0  00000-0 0  9991
2 21422  30.0000 270.2671 0000000   0.0000 320.0237 15.05490646    19
SPACEXODC_L_00004254-39
1 21423U 26998EL  26075.70057870  .00000000  00000+0  00000-0 0  9999
2 21423  30.0000 270.2671 0000000   0.0000 328.0237 15.05490646    18
SPACEXODC_L_00004254-40
1 21424U 26261BI  26075.70057870  .00000000  00000+0  00000-0 0  9993
2 21424  30.0000 270.2671 0000000   0.0000 336.0237 15.05490646    18
SPACEXODC_L_00004254-41
1 21425U 26361QA  26075.70057870  .00000000  00000+0  00000-0 0  9995
2 21425  30.0000 270.2671 0000000   0.0000 344.0237 15.05490646    18
SPACEXODC_L_00004254-42
1 21426U 25680RM  26075.70057870  .00000000  00000+0  00000-0 0  9999
2 21426  30.0000 270.2671 0000000   0.0000 352.0237 15.05490646    18
SPACEXODC_L_00004254-43
1 21427U 23209PK  26075.70057870  .00000000  00000+0  00000-0 0  9995
2 21427  30.0000 270.2671 0000000   0.0000   0.0237 15.05490646    19
SPACEXODC_L_00004254-44
1 21428U 26234WF  26075.70057870  .00000000  00000+0  00000-0 0  9997
2 21428  30.0000 270.2671 0000000   0.0000   8.0237 15.05490646    18
SPACEXODC_L_00004254-45
1 21429U 26194KA  26075.70057870  .00000000  00000+0  00000-0 0  9993
2 21429  30.0000 270.2671 0000000   0.0000  16.0237 15.05490646    18
SPACEXODC_L_00004255-01
1 21430U 26923UB  26075.70057870  .00000000  00000+0  00000-0 0  9995
2 21430  30.0000 271.3353 0000000   0.0000  24.1187 15.05490646    13
SPACEXODC_L_00004255-02
1 21431U 23556PH  26075.70057870  .00000000  00000+0  00000-0 0  9995
2 21431  30.0000 271.3353 0000000   0.0000  32.1187 15.05490646    13
SPACEXODC_L_00004255-03
1 21432U 23625XD  26075.70057870  .00000000  00000+0  00000-0 0  9993
2 21432  30.0000 271.3353 0000000   0.0000  40.1187 15.05490646    13
SPACEXODC_L_00004255-04
1 21433U 26833DV  26075.70057870  .00000000  00000+0  00000-0 0  9998
2 21433  30.0000 271.3353 0000000   0.0000  48.1187 15.05490646    12
SPACEXODC_L_00004255-05
1 21434U 23524XE  26075.70057870  .00000000  00000+0  00000-0 0  9993
2 21434  30.0000 271.3353 0000000   0.0000  56.1187 15.05490646    12
SPACEXODC_L_00004255-06
1 21435U 22360FO  26075.70057870  .00000000  00000+0  00000-0 0  9991
2 21435  30.0000 271.3353 0000000   0.0000  64.1187 15.05490646    12
SPACEXODC_L_00004255-07
1 21436U 26015CM  26075.70057870  .00000000  00000+0  00000-0 0  9993
2 21436  30.0000 271.3353 0000000   0.0000  72.1187 15.05490646    12
SPACEXODC_L_00004255-08
1 21437U 24733BY  26075.70057870  .00000000  00000+0  00000-0 0  9999
2 21437  30.0000 271.3353 0000000   0.0000  80.1187 15.05490646    12
SPACEXODC_L_00004255-09
1 21438U 26215CP  26075.70057870  .00000000  00000+0  00000-0 0  9997
2 21438  30.0000 271.3353 0000000   0.0000  88.1187 15.05490646    11
SPACEXODC_L_00004255-10
1 21439U 24027JB  26075.70057870  .00000000  00000+0  00000-0 0  9997
2 21439  30.0000 271.3353 0000000   0.0000  96.1187 15.05490646    11
SPACEXODC_L_00004255-11
1 21440U 26757FU  26075.70057870  .00000000  00000+0  00000-0 0  9991
2 21440  30.0000 271.3353 0000000   0.0000 104.1187 15.05490646    13
SPACEXODC_L_00004255-12
1 21441U 26821BC  26075.70057870  .00000000  00000+0  00000-0 0  9994
2 21441  30.0000 271.3353 0000000   0.0000 112.1187 15.05490646    13
SPACEXODC_L_00004255-13
1 21442U 23790KH  26075.70057870  .00000000  00000+0  00000-0 0  9997
2 21442  30.0000 271.3353 0000000   0.0000 120.1187 15.05490646    13
SPACEXODC_L_00004255-14
1 21443U 24339PH  26075.70057870  .00000000  00000+0  00000-0 0  9998
2 21443  30.0000 271.3353 0000000   0.0000 128.1187 15.05490646    12
SPACEXODC_L_00004255-15
1 21444U 23978CT  26075.70057870  .00000000  00000+0  00000-0 0  9997
2 21444  30.0000 271.3353 0000000   0.0000 136.1187 15.05490646    12
SPACEXODC_L_00004255-16
1 21445U 26521RQ  26075.70057870  .00000000  00000+0  00000-0 0  9995
2 21445  30.0000 271.3353 0000000   0.0000 144.1187 15.05490646    12
SPACEXODC_L_00004255-17
1 21446U 25763WF  26075.70057870  .00000000  00000+0  00000-0 0  9993
2 21446  30.0000 271.3353 0000000   0.0000 152.1187 15.05490646    12
SPACEXODC_L_00004255-18
1 21447U 25982PG  26075.70057870  .00000000  00000+0  00000-0 0  9997
2 21447  30.0000 271.3353 0000000   0.0000 160.1187 15.05490646    12
SPACEXODC_L_00004255-19
1 21448U 23114VY  26075.70057870  .00000000  00000+0  00000-0 0  9993
2 21448  30.0000 271.3353 0000000   0.0000 168.1187 15.05490646    11
SPACEXODC_L_00004255-20
1 21449U 23437DD  26075.70057870  .00000000  00000+0  00000-0 0  9992
2 21449  30.0000 271.3353 0000000   0.0000 176.1187 15.05490646    11
SPACEXODC_L_00004255-21
1 21450U 23474CZ  26075.70057870  .00000000  00000+0  00000-0 0  9995
2 21450  30.0000 271.3353 0000000   0.0000 184.1187 15.05490646    12
SPACEXODC_L_00004255-22
1 21451U 22337UQ  26075.70057870  .00000000  00000+0  00000-0 0  9993
2 21451  30.0000 271.3353 0000000   0.0000 192.1187 15.05490646    12
SPACEXODC_L_00004255-23
1 21452U 25522WN  26075.70057870  .00000000  00000+0  00000-0 0  9993
2 21452  30.0000 271.3353 0000000   0.0000 200.1187 15.05490646    13
SPACEXODC_L_00004255-24
1 21453U 23922DP  26075.70057870  .00000000  00000+0  00000-0 0  9996
2 21453  30.0000 271.3353 0000000   0.0000 208.1187 15.05490646    12
SPACEXODC_L_00004255-25
1 21454U 22286VU  26075.70057870  .00000000  00000+0  00000-0 0  9999
2 21454  30.0000 271.3353 0000000   0.0000 216.1187 15.05490646    12
SPACEXODC_L_00004255-26
1 21455U 22235XB  26075.70057870  .00000000  00000+0  00000-0 0  9994
2 21455  30.0000 271.3353 0000000   0.0000 224.1187 15.05490646    12
SPACEXODC_L_00004255-27
1 21456U 25325HD  26075.70057870  .00000000  00000+0  00000-0 0  9998
2 21456  30.0000 271.3353 0000000   0.0000 232.1187 15.05490646    12
SPACEXODC_L_00004255-28
1 21457U 26384LD  26075.70057870  .00000000  00000+0  00000-0 0  9995
2 21457  30.0000 271.3353 0000000   0.0000 240.1187 15.05490646    12
SPACEXODC_L_00004255-29
1 21458U 23341OJ  26075.70057870  .00000000  00000+0  00000-0 0  9996
2 21458  30.0000 271.3353 0000000   0.0000 248.1187 15.05490646    11
SPACEXODC_L_00004255-30
1 21459U 23889OR  26075.70057870  .00000000  00000+0  00000-0 0  9994
2 21459  30.0000 271.3353 0000000   0.0000 256.1187 15.05490646    11
